STARLINK-1200           
1 45181U 20012D   24247.59732681  .00030112  00000+0  20312-2 0  9990
2 45181  53.0564   5.0607 0001396  87.3588 272.7560 15.06410920251623
STARLINK-1201           
1 45182U 20012E   24247.55125223  .00029811  00000+0  20119-2 0  9994
2 45182  53.0555 345.2685 0001435  93.6993 266.4160 15.06397707251255
STARLINK-1202           
1 45183U 20012F   24247.63418798  .00025794  00000+0  17441-2 0  9996
2 45183  53.0577   4.8921 0001488  94.8754 265.2405 15.06401871251636
STARLINK-1205           
1 45184U 20012G   24247.55861956  .00032206  00000+0  21684-2 0  9996
2 45184  53.0566 345.2316 0001580  57.0563 303.0578 15.06447076250938
STARLINK-1216           
1 45185U 20012H   24247.62681924  .00027589  00000+0  18636-2 0  9991
2 45185  53.0577   4.9280 0001508  93.4971 266.6190 15.06404000251572
STARLINK-1224           
1 45186U 20012J   24247.57521073  .00019575  00000+0  13296-2 0  9997
2 45186  53.0563   5.1570 0001506  91.4424 268.6738 15.06393226251568
STARLINK-1225           
1 45187U 20012K   24247.57891916  .00024168  00000+0  16367-2 0  9990
2 45187  53.0564   5.1404 0001365  82.9838 277.1306 15.06379432251618
STARLINK-1228           
1 45188U 20012L   24247.51158161  .00023139  00000+0  15670-2 0  9996
2 45188  53.0559 325.1266 0001282  71.1335 288.9792 15.06404757252129
STARLINK-1230           
1 45189U 20012M   24247.58257625  .00032197  00000+0  21697-2 0  9999
2 45189  53.0565   5.1234 0003477 156.5796 203.5352 15.06412361248843
STARLINK-1234           
1 45190U 20012N   24247.53469023  .00014615  00000+0  99851-3 0  9996
2 45190  53.0560 325.3395 0001713  79.1159 281.0023 15.06381922252073
STARLINK-1236           
1 45191U 20012P   24247.58996754  .00026449  00000+0  17889-2 0  9996
2 45191  53.0558   5.0898 0001319  86.2135 273.9005 15.06377903248839
STARLINK-1237           
1 45192U 20012Q   24247.63050379  .00032665  00000+0  22017-2 0  9993
2 45192  53.0561   4.9098 0001238  77.2351 282.8777 15.06399421251630
STARLINK-1240           
1 45194U 20012S   24247.62314033  .00010426  00000+0  71796-3 0  9994
2 45194  53.0564   4.9425 0001276  77.0458 283.0673 15.06392281251520
STARLINK-1244           
1 45196U 20012U   24247.60470499  .00027439  00000+0  18536-2 0  9997
2 45196  53.0564   5.0249 0001506  77.7545 282.3613 15.06403944251679
STARLINK-1269           
1 45197U 20012V   24247.59365452  .00020953  00000+0  14222-2 0  9990
2 45197  53.0556   5.0721 0001406  81.2042 278.9107 15.06377520251597
STARLINK-1154           
1 45198U 20012W   24247.58443781  .00033263  00000+0  22409-2 0  9996
2 45198  53.0559 345.1155 0001439  69.4578 290.6566 15.06409248251849
STARLINK-1197           
1 45199U 20012X   24247.43716955  .00632917  19453-3  10980-2 0  9995
2 45199  53.0405 266.9033 0009752  25.2753 334.8752 16.01614568252989
STARLINK-1199           
1 45201U 20012Z   24247.59549104  .00038400  00000+0  25826-2 0  9992
2 45201  53.0551 345.0685 0001314  81.0667 279.0470 15.06403753251901
STARLINK-1206           
1 45204U 20012AC  24247.55494277  .00027895  00000+0  18843-2 0  9998
2 45204  53.0556 345.2525 0001399  76.6989 283.4156 15.06398195250962
STARLINK-1208           
1 45205U 20012AD  24247.57705502  .00029081  00000+0  19636-2 0  9997
2 45205  53.0565 345.1500 0001642  98.6564 261.4611 15.06392196251923
STARLINK-1209           
1 45206U 20012AE  24247.60471625  .00027021  00000+0  18253-2 0  9994
2 45206  53.0545 325.0268 0001709  67.3139 292.8030 15.06414074251232
STARLINK-1210           
1 45207U 20012AF  24247.59663434  .00069080  00000+0  44997-2 0  9999
2 45207  53.0557 345.0382 0001633  44.1740 315.9380 15.07306831251903
STARLINK-1219           
1 45210U 20012AJ  24247.53652845  .00025098  00000+0  16993-2 0  9997
2 45210  53.0550 345.3305 0000968  67.2030 292.9061 15.06368325251787
STARLINK-1231           
1 45212U 20012AL  24247.56968661  .00031466  00000+0  21217-2 0  9999
2 45212  53.0565 345.1837 0001360  76.7423 283.3718 15.06404008251851
STARLINK-1233           
1 45214U 20012AN  24247.58334491  .00532669  13217-3  11180-2 0  9998
2 45214  53.0462 271.2663 0009548  17.8130 338.3931 15.98301654  5974
STARLINK-1271           
1 45217U 20012AR  24247.58074676  .00036650  00000+0  24670-2 0  9996
2 45217  53.0562 345.1308 0001275  94.1766 265.9369 15.06393661251901
STARLINK-1187           
1 45219U 20012AT  24247.51256484  .00023980  00000+0  16230-2 0  9995
2 45219  53.0548 325.4430 0001541  59.8148 300.2993 15.06406683252188
STARLINK-1189           
1 45221U 20012AV  24247.51626307  .00017294  00000+0  11777-2 0  9995
2 45221  53.0557 325.4242 0001463  74.7241 285.3909 15.06379969252170
STARLINK-1191           
1 45222U 20012AW  24247.52363167  .00032475  00000+0  21899-2 0  9993
2 45222  53.0559 325.3893 0001324  75.9325 284.1811 15.06385129252170
STARLINK-1212           
1 45223U 20012AX  24247.54213737  .00032526  00000+0  21933-2 0  9999
2 45223  53.0548 325.9603 0001170  68.9972 291.1143 15.06385781251239
STARLINK-1215           
1 45225U 20012AZ  24247.49782286  .00028382  00000+0  19165-2 0  9994
2 45225  53.0544 325.5093 0001337  80.7624 279.3516 15.06402656252129
STARLINK-1217           
1 45226U 20012BA  24247.50519220  .00026544  00000+0  17941-2 0  9991
2 45226  53.0555 325.4736 0001409  69.3847 290.7293 15.06401727252087
STARLINK-1221           
1 45227U 20012BB  24247.58334491  .00093009  00000+0  49061-2 0  9993
2 45227  53.0554 322.6109 0003077  30.6911 131.8168 15.14777220  5801
STARLINK-1222           
1 45228U 20012BC  24247.53099468  .00028688  00000+0  19370-2 0  9992
2 45228  53.0553 325.3552 0001354  88.0505 272.0639 15.06399606252067
STARLINK-1226           
1 45229U 20012BD  24247.49413599  .00026314  00000+0  17786-2 0  9996
2 45229  53.0544 325.5251 0001410  70.5221 289.5920 15.06404832252064
STARLINK-1227           
1 45230U 20012BE  24247.49044328  .00018217  00000+0  12387-2 0  9993
2 45230  53.0541 325.5426 0001551  55.3784 304.7351 15.06400855252180
STARLINK-1235           
1 45232U 20012BG  24247.42491221  .00094437  00000+0  31981-2 0  9995
2 45232  53.0687 299.4083 0009106 342.4166  17.6516 15.29779996252542
STARLINK-1238           
1 45233U 20012BH  24247.54660737 -.00026317  00000+0 -17534-2 0  9991
2 45233  53.0551 345.2791 0001403  66.5712 293.5424 15.06420229250955
STARLINK-1246           
1 45235U 20012BK  24247.57151446  .00021573  00000+0  14606-2 0  9992
2 45235  53.0565   5.1709 0000905 128.3283 231.7787 15.06453696251646
STARLINK-1247           
1 45236U 20012BL  24247.48676043  .00031610  00000+0  21310-2 0  9991
2 45236  53.0536 325.5589 0001524  84.9836 275.1327 15.06409144252168
STARLINK-1270           
1 45237U 20012BM  24247.50888710  .00029889  00000+0  20178-2 0  9997
2 45237  53.0550 325.4601 0001345  72.8684 287.2452 15.06384541252174
STARLINK-1279           
1 45360U 20019A   24247.60011371  .00005926  00000+0  41653-3 0  9991
2 45360  53.0538  95.0411 0001221 101.3277 258.7849 15.06384639246922
STARLINK-1301           
1 45361U 20019B   24247.32272327  .00007519  00000+0  52308-3 0  9990
2 45361  53.0533 106.2870 0001166 103.2329 256.8790 15.06401260246754
STARLINK-1306           
1 45362U 20019C   24247.36880061 -.00008589  00000+0 -55811-3 0  9997
2 45362  53.0536 126.0846 0001250  76.5779 283.5349 15.06417572246475
STARLINK-1313           
1 45364U 20019E   24247.58334491  .00138377  00000+0  21426-2 0  9995
2 45364  53.0184  15.2432 0006157 320.9316 100.7481 15.53080181  5979
STARLINK-1262           
1 45366U 20019G   24247.08865858  .00031966  00000+0  21531-2 0  9991
2 45366  53.0533 127.3416 0001242 116.3047 243.8070 15.06436271246449
STARLINK-1273           
1 45367U 20019H   24247.37616350  .00017761  00000+0  12078-2 0  9998
2 45367  53.0535 126.0520 0001705  92.1751 267.9434 15.06414361246482
STARLINK-1276           
1 45368U 20019J   24247.08129667  .00027109  00000+0  18301-2 0  9999
2 45368  53.0537 127.3728 0001610  91.9202 268.1971 15.06435103246444
STARLINK-1277           
1 45369U 20019K   24247.40572928  .00015525  00000+0  10585-2 0  9993
2 45369  53.0535 126.5429 0001190  67.0143 293.0971 15.06411863246481
STARLINK-1281           
1 45370U 20019L   24247.40197726  .00017670  00000+0  12020-2 0  9993
2 45370  53.0536 125.9340 0001639 102.1521 257.9651 15.06405796246491
STARLINK-1288           
1 45372U 20019N   24247.58334491  .00561608  14959-3  10807-2 0  9994
2 45372  53.0416  46.9467 0007494 290.5226 203.5852 15.99866360  6091
STARLINK-1295           
1 45373U 20019P   24247.62681174  .00006122  00000+0  42958-3 0  9999
2 45373  53.0534 124.9324 0001496  78.1326 281.9831 15.06397078246523
STARLINK-1300           
1 45374U 20019Q   24247.35772652  .00020625  00000+0  13988-2 0  9996
2 45374  53.0528 126.1295 0001115  92.3726 267.7391 15.06418533246486
STARLINK-1302           
1 45375U 20019R   24247.37247147  .00013103  00000+0  89643-3 0  9990
2 45375  53.0534 126.0668 0001393  94.7350 265.3798 15.06420649246480
STARLINK-1304           
1 45376U 20019S   24247.39091070 -.00000251  00000+0  20645-5 0  9995
2 45376  53.0539 125.9867 0001236  78.8486 281.2642 15.06408749246486
STARLINK-1305           
1 45377U 20019T   24246.95228693  .00031502  00000+0  21228-2 0  9997
2 45377  53.0534 127.9538 0001319 114.7213 245.3913 15.06426799246420
STARLINK-1319           
1 45379U 20019V   24246.94493621  .00036877  00000+0  24808-2 0  9990
2 45379  53.0536 127.9841 0001184  79.2810 280.8312 15.06413428246421
STARLINK-1207           
1 45380U 20019W   24247.60654040  .00006712  00000+0  46899-3 0  9990
2 45380  53.0528 105.0182 0001315  95.9070 264.2069 15.06404765246797
STARLINK-1258           
1 45381U 20019X   24247.35221026  .00008779  00000+0  60737-3 0  9999
2 45381  53.0546 106.1522 0001732  83.7470 276.3716 15.06409075246758
